{
  "type": "FeatureCollection",
  "features": [
    {
      "type": "Feature",
      "properties": {
        "parcel_id": "P-00001",
        "survey_number": "1/2",
        "area": 1.2,
        "village": "Rampur",
        "district": "Pune",
        "state": "Maharashtra",
        "land_record_id": "0055b96d-efa3-4944-b169-73864e85ad98"
      },
      "geometry": {
        "type": "Polygon",
        "coordinates": [
          [
            [
              73.84213023092009,
              18.51369888054602
            ],
            [
              73.84369978198619,
              18.51369888054602
            ],
            [
              73.84369978198619,
              18.515268431612125
            ],
            [
              73.84213023092009,
              18.515268431612125
            ],
            [
              73.84213023092009,
              18.51369888054602
            ]
          ]
        ]
      }
    },
    {
      "type": "Feature",
      "properties": {
        "parcel_id": "P-00002",
        "survey_number": "2/1",
        "area": 3.31,
        "village": "Shivapur",
        "district": "Pune",
        "state": "Maharashtra",
        "land_record_id": "94e72641-4f80-4854-97d8-b685af5b91f7"
      },
      "geometry": {
        "type": "Polygon",
        "coordinates": [
          [
            [
              73.84519300653608,
              18.513279702082844
            ],
            [
              73.84686935903372,
              18.513279702082844
            ],
            [
              73.84686935903372,
              18.514956054580477
            ],
            [
              73.84519300653608,
              18.514956054580477
            ],
            [
              73.84519300653608,
              18.513279702082844
            ]
          ]
        ]
      }
    },
    {
      "type": "Feature",
      "properties": {
        "parcel_id": "P-00003",
        "survey_number": "3/3",
        "area": 1.89,
        "village": "Nimbgaon",
        "district": "Pune",
        "state": "Maharashtra",
        "land_record_id": "ab1536fd-59ab-469f-bfcf-d00aa867ce90"
      },
      "geometry": {
        "type": "Polygon",
        "coordinates": [
          [
            [
              73.8481130151452,
              18.513794774163397
            ],
            [
              73.84969478336643,
              18.513794774163397
            ],
            [
              73.84969478336643,
              18.51537654238461
            ],
            [
              73.8481130151452,
              18.51537654238461
            ],
            [
              73.8481130151452,
              18.513794774163397
            ]
          ]
        ]
      }
    },
    {
      "type": "Feature",
      "properties": {
        "parcel_id": "P-00004",
        "survey_number": "4/4",
        "area": 3.18,
        "village": "Karanjawane",
        "district": "Pune",
        "state": "Maharashtra",
        "land_record_id": "80b81d89-99ec-4b20-80c6-7645be3b2352"
      },
      "geometry": {
        "type": "Polygon",
        "coordinates": [
          [
            [
              73.851135557181,
              18.513344571375782
            ],
            [
              73.853077189686,
              18.513344571375782
            ],
            [
              73.853077189686,
              18.515286203880798
            ],
            [
              73.851135557181,
              18.515286203880798
            ],
            [
              73.851135557181,
              18.513344571375782
            ]
          ]
        ]
      }
    },
    {
      "type": "Feature",
      "properties": {
        "parcel_id": "P-00005",
        "survey_number": "5/1",
        "area": 3.81,
        "village": "Khadakwasla",
        "district": "Pune",
        "state": "Maharashtra",
        "land_record_id": "ed2a752f-bf7d-4c12-aebe-80f08cff1217"
      },
      "geometry": {
        "type": "Polygon",
        "coordinates": [
          [
            [
              73.8540248539273,
              18.513539143960354
            ],
            [
              73.85620910810412,
              18.513539143960354
            ],
            [
              73.85620910810412,
              18.515723398137165
            ],
            [
              73.8540248539273,
              18.515723398137165
            ],
            [
              73.8540248539273,
              18.513539143960354
            ]
          ]
        ]
      }
    },
    {
      "type": "Feature",
      "properties": {
        "parcel_id": "P-00006",
        "survey_number": "6/3",
        "area": 2.28,
        "village": "Dontagaon",
        "district": "Pune",
        "state": "Maharashtra",
        "land_record_id": "68aebf89-f482-4b34-8d72-fa21221433e4"
      },
      "geometry": {
        "type": "Polygon",
        "coordinates": [
          [
            [
              73.85728775826428,
              18.513273131759597
            ],
            [
              73.85927506306882,
              18.513273131759597
            ],
            [
              73.85927506306882,
              18.515260436564134
            ],
            [
              73.85728775826428,
              18.515260436564134
            ],
            [
              73.85728775826428,
              18.513273131759597
            ]
          ]
        ]
      }
    },
    {
      "type": "Feature",
      "properties": {
        "parcel_id": "P-00007",
        "survey_number": "7/2",
        "area": 3.92,
        "village": "Pargaon",
        "district": "Pune",
        "state": "Maharashtra",
        "land_record_id": "e00d1d8e-10c2-4997-82e0-2ad8bc1f962c"
      },
      "geometry": {
        "type": "Polygon",
        "coordinates": [
          [
            [
              73.85991932045866,
              18.513458755041164
            ],
            [
              73.86207676253386,
              18.513458755041164
            ],
            [
              73.86207676253386,
              18.515616197116373
            ],
            [
              73.85991932045866,
              18.515616197116373
            ],
            [
              73.85991932045866,
              18.513458755041164
            ]
          ]
        ]
      }
    },
    {
      "type": "Feature",
      "properties": {
        "parcel_id": "P-00008",
        "survey_number": "8/2",
        "area": 3.78,
        "village": "Bhukum",
        "district": "Pune",
        "state": "Maharashtra",
        "land_record_id": "3d4866ae-4546-4757-a069-e53af0a5ce58"
      },
      "geometry": {
        "type": "Polygon",
        "coordinates": [
          [
            [
              73.86321944106997,
              18.513453495889408
            ],
            [
              73.86483373834231,
              18.513453495889408
            ],
            [
              73.86483373834231,
              18.515067793161762
            ],
            [
              73.86321944106997,
              18.515067793161762
            ],
            [
              73.86321944106997,
              18.513453495889408
            ]
          ]
        ]
      }
    },
    {
      "type": "Feature",
      "properties": {
        "parcel_id": "P-00009",
        "survey_number": "9/4",
        "area": 4.99,
        "village": "Bhugaon",
        "district": "Pune",
        "state": "Maharashtra",
        "land_record_id": "e4be5730-231e-4f10-86c9-fdebe3ac715e"
      },
      "geometry": {
        "type": "Polygon",
        "coordinates": [
          [
            [
              73.86638565807013,
              18.51370926508559
            ],
            [
              73.86806111467746,
              18.51370926508559
            ],
            [
              73.86806111467746,
              18.515384721692914
            ],
            [
              73.86638565807013,
              18.515384721692914
            ],
            [
              73.86638565807013,
              18.51370926508559
            ]
          ]
        ]
      }
    },
    {
      "type": "Feature",
      "properties": {
        "parcel_id": "P-00010",
        "survey_number": "10/2",
        "area": 4.46,
        "village": "Pirangut",
        "district": "Pune",
        "state": "Maharashtra",
        "land_record_id": "3916fccd-932a-4e26-9565-503e9b78c227"
      },
      "geometry": {
        "type": "Polygon",
        "coordinates": [
          [
            [
              73.86957805821206,
              18.51362069841847
            ],
            [
              73.87112888037697,
              18.51362069841847
            ],
            [
              73.87112888037697,
              18.515171520583394
            ],
            [
              73.86957805821206,
              18.515171520583394
            ],
            [
              73.86957805821206,
              18.51362069841847
            ]
          ]
        ]
      }
    },
    {
      "type": "Feature",
      "properties": {
        "parcel_id": "P-00011",
        "survey_number": "11/1",
        "area": 3.91,
        "village": "Rampur",
        "district": "Pune",
        "state": "Maharashtra",
        "land_record_id": "61f4f33a-29c7-4658-bfea-9be97d75fb76"
      },
      "geometry": {
        "type": "Polygon",
        "coordinates": [
          [
            [
              73.842160029114,
              18.516640233335078
            ],
            [
              73.84427490810013,
              18.516640233335078
            ],
            [
              73.84427490810013,
              18.518755112321205
            ],
            [
              73.842160029114,
              18.518755112321205
            ],
            [
              73.842160029114,
              18.516640233335078
            ]
          ]
        ]
      }
    },
    {
      "type": "Feature",
      "properties": {
        "parcel_id": "P-00012",
        "survey_number": "12/2",
        "area": 3.04,
        "village": "Shivapur",
        "district": "Pune",
        "state": "Maharashtra",
        "land_record_id": "b372b7b2-ae36-4c5e-b770-76291c3b1ab9"
      },
      "geometry": {
        "type": "Polygon",
        "coordinates": [
          [
            [
              73.84490822691335,
              18.516189432337917
            ],
            [
              73.84708156239189,
              18.516189432337917
            ],
            [
              73.84708156239189,
              18.518362767816456
            ],
            [
              73.84490822691335,
              18.518362767816456
            ],
            [
              73.84490822691335,
              18.516189432337917
            ]
          ]
        ]
      }
    },
    {
      "type": "Feature",
      "properties": {
        "parcel_id": "P-00013",
        "survey_number": "13/1",
        "area": 3.49,
        "village": "Nimbgaon",
        "district": "Pune",
        "state": "Maharashtra",
        "land_record_id": "52145956-00ee-4e03-83d8-f7de3aa7252f"
      },
      "geometry": {
        "type": "Polygon",
        "coordinates": [
          [
            [
              73.84832960122144,
              18.51642459957093
            ],
            [
              73.84991909540169,
              18.51642459957093
            ],
            [
              73.84991909540169,
              18.518014093751187
            ],
            [
              73.84832960122144,
              18.518014093751187
            ],
            [
              73.84832960122144,
              18.51642459957093
            ]
          ]
        ]
      }
    },
    {
      "type": "Feature",
      "properties": {
        "parcel_id": "P-00014",
        "survey_number": "14/1",
        "area": 0.93,
        "village": "Karanjawane",
        "district": "Pune",
        "state": "Maharashtra",
        "land_record_id": "3a5dd7c7-9bfb-44e5-a3f8-f12921df3513"
      },
      "geometry": {
        "type": "Polygon",
        "coordinates": [
          [
            [
              73.85090247758875,
              18.516442871085406
            ],
            [
              73.85318486518368,
              18.516442871085406
            ],
            [
              73.85318486518368,
              18.518725258680345
            ],
            [
              73.85090247758875,
              18.518725258680345
            ],
            [
              73.85090247758875,
              18.516442871085406
            ]
          ]
        ]
      }
    },
    {
      "type": "Feature",
      "properties": {
        "parcel_id": "P-00015",
        "survey_number": "15/3",
        "area": 3.14,
        "village": "Khadakwasla",
        "district": "Pune",
        "state": "Maharashtra",
        "land_record_id": "b3b0066a-ee11-4753-9f62-bcaa696af4ea"
      },
      "geometry": {
        "type": "Polygon",
        "coordinates": [
          [
            [
              73.85416010533126,
              18.516039711144508
            ],
            [
              73.85643159565606,
              18.516039711144508
            ],
            [
              73.85643159565606,
              18.518311201469317
            ],
            [
              73.85416010533126,
              18.518311201469317
            ],
            [
              73.85416010533126,
              18.516039711144508
            ]
          ]
        ]
      }
    },
    {
      "type": "Feature",
      "properties": {
        "parcel_id": "P-00016",
        "survey_number": "16/3",
        "area": 2.69,
        "village": "Dontagaon",
        "district": "Pune",
        "state": "Maharashtra",
        "land_record_id": "592962d6-93d2-49a4-83ab-d3581c312e06"
      },
      "geometry": {
        "type": "Polygon",
        "coordinates": [
          [
            [
              73.85722228895968,
              18.516739556963103
            ],
            [
              73.85881909231638,
              18.516739556963103
            ],
            [
              73.85881909231638,
              18.5183363603198
            ],
            [
              73.85722228895968,
              18.5183363603198
            ],
            [
              73.85722228895968,
              18.516739556963103
            ]
          ]
        ]
      }
    },
    {
      "type": "Feature",
      "properties": {
        "parcel_id": "P-00017",
        "survey_number": "17/2",
        "area": 0.54,
        "village": "Pargaon",
        "district": "Pune",
        "state": "Maharashtra",
        "land_record_id": "e19df068-3a28-4e25-b160-dfd66418ca4f"
      },
      "geometry": {
        "type": "Polygon",
        "coordinates": [
          [
            [
              73.86047602509983,
              18.516525891206044
            ],
            [
              73.86202994536232,
              18.516525891206044
            ],
            [
              73.86202994536232,
              18.51807981146853
            ],
            [
              73.86047602509983,
              18.51807981146853
            ],
            [
              73.86047602509983,
              18.516525891206044
            ]
          ]
        ]
      }
    },
    {
      "type": "Feature",
      "properties": {
        "parcel_id": "P-00018",
        "survey_number": "18/2",
        "area": 3.2,
        "village": "Bhukum",
        "district": "Pune",
        "state": "Maharashtra",
        "land_record_id": "594311c0-582e-4027-9428-89c4f9037452"
      },
      "geometry": {
        "type": "Polygon",
        "coordinates": [
          [
            [
              73.86310373437009,
              18.51620344599941
            ],
            [
              73.86498187119115,
              18.51620344599941
            ],
            [
              73.86498187119115,
              18.518081582820457
            ],
            [
              73.86310373437009,
              18.518081582820457
            ],
            [
              73.86310373437009,
              18.51620344599941
            ]
          ]
        ]
      }
    },
    {
      "type": "Feature",
      "properties": {
        "parcel_id": "P-00019",
        "survey_number": "19/3",
        "area": 2.62,
        "village": "Bhugaon",
        "district": "Pune",
        "state": "Maharashtra",
        "land_record_id": "628c0190-6359-44d3-8a1b-d473285bafd9"
      },
      "geometry": {
        "type": "Polygon",
        "coordinates": [
          [
            [
              73.86593724965897,
              18.51632489015797
            ],
            [
              73.8679759412968,
              18.51632489015797
            ],
            [
              73.8679759412968,
              18.518363581795807
            ],
            [
              73.86593724965897,
              18.518363581795807
            ],
            [
              73.86593724965897,
              18.51632489015797
            ]
          ]
        ]
      }
    },
    {
      "type": "Feature",
      "properties": {
        "parcel_id": "P-00020",
        "survey_number": "20/2",
        "area": 1.45,
        "village": "Pirangut",
        "district": "Pune",
        "state": "Maharashtra",
        "land_record_id": "93fb3060-3aa5-4aeb-8a3b-143719acfd6b"
      },
      "geometry": {
        "type": "Polygon",
        "coordinates": [
          [
            [
              73.86941817549713,
              18.51621761494851
            ],
            [
              73.871255680809,
              18.51621761494851
            ],
            [
              73.871255680809,
              18.518055120260378
            ],
            [
              73.86941817549713,
              18.518055120260378
            ],
            [
              73.86941817549713,
              18.51621761494851
            ]
          ]
        ]
      }
    },
    {
      "type": "Feature",
      "properties": {
        "parcel_id": "P-00021",
        "survey_number": "21/1",
        "area": 0.75,
        "village": "Rampur",
        "district": "Pune",
        "state": "Maharashtra",
        "land_record_id": "8c1147c2-9980-4c85-948e-49fca06ae331"
      },
      "geometry": {
        "type": "Polygon",
        "coordinates": [
          [
            [
              73.84231636085667,
              18.519112285365814
            ],
            [
              73.84459155786249,
              18.519112285365814
            ],
            [
              73.84459155786249,
              18.521387482371644
            ],
            [
              73.84231636085667,
              18.521387482371644
            ],
            [
              73.84231636085667,
              18.519112285365814
            ]
          ]
        ]
      }
    },
    {
      "type": "Feature",
      "properties": {
        "parcel_id": "P-00022",
        "survey_number": "22/2",
        "area": 2.39,
        "village": "Shivapur",
        "district": "Pune",
        "state": "Maharashtra",
        "land_record_id": "aec68287-0db4-4428-882c-01ca0aa0924d"
      },
      "geometry": {
        "type": "Polygon",
        "coordinates": [
          [
            [
              73.84506820782137,
              18.519223241205346
            ],
            [
              73.84730942228022,
              18.519223241205346
            ],
            [
              73.84730942228022,
              18.521464455664194
            ],
            [
              73.84506820782137,
              18.521464455664194
            ],
            [
              73.84506820782137,
              18.519223241205346
            ]
          ]
        ]
      }
    },
    {
      "type": "Feature",
      "properties": {
        "parcel_id": "P-00023",
        "survey_number": "23/2",
        "area": 1.45,
        "village": "Nimbgaon",
        "district": "Pune",
        "state": "Maharashtra",
        "land_record_id": "d7c56492-824d-41f8-a466-e1ce1f25b7ba"
      },
      "geometry": {
        "type": "Polygon",
        "coordinates": [
          [
            [
              73.84849271846821,
              18.519372132375263
            ],
            [
              73.85045606270086,
              18.519372132375263
            ],
            [
              73.85045606270086,
              18.52133547660792
            ],
            [
              73.84849271846821,
              18.52133547660792
            ],
            [
              73.84849271846821,
              18.519372132375263
            ]
          ]
        ]
      }
    },
    {
      "type": "Feature",
      "properties": {
        "parcel_id": "P-00024",
        "survey_number": "24/2",
        "area": 0.78,
        "village": "Karanjawane",
        "district": "Pune",
        "state": "Maharashtra",
        "land_record_id": "359cf858-8518-42a1-ae42-1ac78b95cdbe"
      },
      "geometry": {
        "type": "Polygon",
        "coordinates": [
          [
            [
              73.85084376214562,
              18.51945824831809
            ],
            [
              73.8530248361819,
              18.51945824831809
            ],
            [
              73.8530248361819,
              18.521639322354364
            ],
            [
              73.85084376214562,
              18.521639322354364
            ],
            [
              73.85084376214562,
              18.51945824831809
            ]
          ]
        ]
      }
    },
    {
      "type": "Feature",
      "properties": {
        "parcel_id": "P-00025",
        "survey_number": "25/2",
        "area": 3.39,
        "village": "Khadakwasla",
        "district": "Pune",
        "state": "Maharashtra",
        "land_record_id": "d1aedf66-1a60-4328-a642-7f7ef793ff6e"
      },
      "geometry": {
        "type": "Polygon",
        "coordinates": [
          [
            [
              73.854634298159,
              18.519357983155825
            ],
            [
              73.85619988488338,
              18.519357983155825
            ],
            [
              73.85619988488338,
              18.52092356988022
            ],
            [
              73.854634298159,
              18.52092356988022
            ],
            [
              73.854634298159,
              18.519357983155825
            ]
          ]
        ]
      }
    },
    {
      "type": "Feature",
      "properties": {
        "parcel_id": "P-00026",
        "survey_number": "26/3",
        "area": 1.69,
        "village": "Dontagaon",
        "district": "Pune",
        "state": "Maharashtra",
        "land_record_id": "67678dec-f453-453c-9339-a24ad80adfbc"
      },
      "geometry": {
        "type": "Polygon",
        "coordinates": [
          [
            [
              73.8570711458184,
              18.51942046006512
            ],
            [
              73.85910849799677,
              18.51942046006512
            ],
            [
              73.85910849799677,
              18.52145781224349
            ],
            [
              73.8570711458184,
              18.52145781224349
            ],
            [
              73.8570711458184,
              18.51942046006512
            ]
          ]
        ]
      }
    },
    {
      "type": "Feature",
      "properties": {
        "parcel_id": "P-00027",
        "survey_number": "27/4",
        "area": 3.61,
        "village": "Pargaon",
        "district": "Pune",
        "state": "Maharashtra",
        "land_record_id": "7cad7629-95d5-41ea-b291-3125fbc7e457"
      },
      "geometry": {
        "type": "Polygon",
        "coordinates": [
          [
            [
              73.860571814407,
              18.519510402029322
            ],
            [
              73.86213042298388,
              18.519510402029322
            ],
            [
              73.86213042298388,
              18.5210690106062
            ],
            [
              73.860571814407,
              18.5210690106062
            ],
            [
              73.860571814407,
              18.519510402029322
            ]
          ]
        ]
      }
    },
    {
      "type": "Feature",
      "properties": {
        "parcel_id": "P-00028",
        "survey_number": "28/3",
        "area": 1.92,
        "village": "Bhukum",
        "district": "Pune",
        "state": "Maharashtra",
        "land_record_id": "750c0657-ae5e-47ac-8078-902bea525eed"
      },
      "geometry": {
        "type": "Polygon",
        "coordinates": [
          [
            [
              73.86342853965677,
              18.519227704278812
            ],
            [
              73.86549137159683,
              18.519227704278812
            ],
            [
              73.86549137159683,
              18.521290536218885
            ],
            [
              73.86342853965677,
              18.521290536218885
            ],
            [
              73.86342853965677,
              18.519227704278812
            ]
          ]
        ]
      }
    },
    {
      "type": "Feature",
      "properties": {
        "parcel_id": "P-00029",
        "survey_number": "29/1",
        "area": 5.19,
        "village": "Bhugaon",
        "district": "Pune",
        "state": "Maharashtra",
        "land_record_id": "50e090e9-d9e2-43c4-a481-ef2cb426a3b2"
      },
      "geometry": {
        "type": "Polygon",
        "coordinates": [
          [
            [
              73.86610852239612,
              18.519696214322458
            ],
            [
              73.86770086533245,
              18.519696214322458
            ],
            [
              73.86770086533245,
              18.521288557258792
            ],
            [
              73.86610852239612,
              18.521288557258792
            ],
            [
              73.86610852239612,
              18.519696214322458
            ]
          ]
        ]
      }
    },
    {
      "type": "Feature",
      "properties": {
        "parcel_id": "P-00030",
        "survey_number": "30/3",
        "area": 1.52,
        "village": "Pirangut",
        "district": "Pune",
        "state": "Maharashtra",
        "land_record_id": "2a86bd66-d070-4fb4-84c6-1d2c38560443"
      },
      "geometry": {
        "type": "Polygon",
        "coordinates": [
          [
            [
              73.86911799618652,
              18.51948652144367
            ],
            [
              73.87100882166824,
              18.51948652144367
            ],
            [
              73.87100882166824,
              18.521377346925387
            ],
            [
              73.86911799618652,
              18.521377346925387
            ],
            [
              73.86911799618652,
              18.51948652144367
            ]
          ]
        ]
      }
    },
    {
      "type": "Feature",
      "properties": {
        "parcel_id": "P-00031",
        "survey_number": "31/3",
        "area": 4.36,
        "village": "Rampur",
        "district": "Pune",
        "state": "Maharashtra",
        "land_record_id": "f6c4e48d-9cf9-4d8b-a2c4-24cd264e7b9b"
      },
      "geometry": {
        "type": "Polygon",
        "coordinates": [
          [
            [
              73.84235111649029,
              18.522434078305043
            ],
            [
              73.84444410121698,
              18.522434078305043
            ],
            [
              73.84444410121698,
              18.524527063031723
            ],
            [
              73.84235111649029,
              18.524527063031723
            ],
            [
              73.84235111649029,
              18.522434078305043
            ]
          ]
        ]
      }
    },
    {
      "type": "Feature",
      "properties": {
        "parcel_id": "P-00032",
        "survey_number": "32/1",
        "area": 4.67,
        "village": "Shivapur",
        "district": "Pune",
        "state": "Maharashtra",
        "land_record_id": "16cd1539-118a-44f5-8dda-03f6cd31e9d4"
      },
      "geometry": {
        "type": "Polygon",
        "coordinates": [
          [
            [
              73.84509656430555,
              18.522547374637163
            ],
            [
              73.84671503933401,
              18.522547374637163
            ],
            [
              73.84671503933401,
              18.524165849665614
            ],
            [
              73.84509656430555,
              18.524165849665614
            ],
            [
              73.84509656430555,
              18.522547374637163
            ]
          ]
        ]
      }
    },
    {
      "type": "Feature",
      "properties": {
        "parcel_id": "P-00033",
        "survey_number": "33/2",
        "area": 3.91,
        "village": "Nimbgaon",
        "district": "Pune",
        "state": "Maharashtra",
        "land_record_id": "04f9b381-052a-4f3b-96c8-6c1763258f2f"
      },
      "geometry": {
        "type": "Polygon",
        "coordinates": [
          [
            [
              73.84837734239652,
              18.522222908513207
            ],
            [
              73.85050143539,
              18.522222908513207
            ],
            [
              73.85050143539,
              18.524347001506705
            ],
            [
              73.84837734239652,
              18.524347001506705
            ],
            [
              73.84837734239652,
              18.522222908513207
            ]
          ]
        ]
      }
    },
    {
      "type": "Feature",
      "properties": {
        "parcel_id": "P-00034",
        "survey_number": "34/2",
        "area": 4.91,
        "village": "Karanjawane",
        "district": "Pune",
        "state": "Maharashtra",
        "land_record_id": "35950185-be5d-48b2-bd7f-d9ff027f77c8"
      },
      "geometry": {
        "type": "Polygon",
        "coordinates": [
          [
            [
              73.85141083250484,
              18.522505060777984
            ],
            [
              73.85350008408226,
              18.522505060777984
            ],
            [
              73.85350008408226,
              18.524594312355386
            ],
            [
              73.85141083250484,
              18.524594312355386
            ],
            [
              73.85141083250484,
              18.522505060777984
            ]
          ]
        ]
      }
    },
    {
      "type": "Feature",
      "properties": {
        "parcel_id": "P-00035",
        "survey_number": "35/3",
        "area": 1.3,
        "village": "Khadakwasla",
        "district": "Pune",
        "state": "Maharashtra",
        "land_record_id": "f2b171a5-d44e-4ce9-b0f1-d0c24072b32f"
      },
      "geometry": {
        "type": "Polygon",
        "coordinates": [
          [
            [
              73.85428247437021,
              18.522559622818463
            ],
            [
              73.85648020779654,
              18.522559622818463
            ],
            [
              73.85648020779654,
              18.52475735624479
            ],
            [
              73.85428247437021,
              18.52475735624479
            ],
            [
              73.85428247437021,
              18.522559622818463
            ]
          ]
        ]
      }
    },
    {
      "type": "Feature",
      "properties": {
        "parcel_id": "P-00036",
        "survey_number": "36/2",
        "area": 1.61,
        "village": "Dontagaon",
        "district": "Pune",
        "state": "Maharashtra",
        "land_record_id": "553ae28d-671c-4121-b90b-98c2ad913036"
      },
      "geometry": {
        "type": "Polygon",
        "coordinates": [
          [
            [
              73.85756976636026,
              18.522338438917537
            ],
            [
              73.85933237592121,
              18.522338438917537
            ],
            [
              73.85933237592121,
              18.524101048478492
            ],
            [
              73.85756976636026,
              18.524101048478492
            ],
            [
              73.85756976636026,
              18.522338438917537
            ]
          ]
        ]
      }
    },
    {
      "type": "Feature",
      "properties": {
        "parcel_id": "P-00037",
        "survey_number": "37/3",
        "area": 5.2,
        "village": "Pargaon",
        "district": "Pune",
        "state": "Maharashtra",
        "land_record_id": "3c1792d7-916f-48c7-a181-28411c8d2a64"
      },
      "geometry": {
        "type": "Polygon",
        "coordinates": [
          [
            [
              73.8604634619167,
              18.522446047869163
            ],
            [
              73.86210631616963,
              18.522446047869163
            ],
            [
              73.86210631616963,
              18.5240889021221
            ],
            [
              73.8604634619167,
              18.5240889021221
            ],
            [
              73.8604634619167,
              18.522446047869163
            ]
          ]
        ]
      }
    },
    {
      "type": "Feature",
      "properties": {
        "parcel_id": "P-00038",
        "survey_number": "38/4",
        "area": 3.53,
        "village": "Bhukum",
        "district": "Pune",
        "state": "Maharashtra",
        "land_record_id": "604d6274-ce8d-4597-a352-896c3be90762"
      },
      "geometry": {
        "type": "Polygon",
        "coordinates": [
          [
            [
              73.8632566600818,
              18.522260963354988
            ],
            [
              73.86506481642847,
              18.522260963354988
            ],
            [
              73.86506481642847,
              18.524069119701664
            ],
            [
              73.8632566600818,
              18.524069119701664
            ],
            [
              73.8632566600818,
              18.522260963354988
            ]
          ]
        ]
      }
    },
    {
      "type": "Feature",
      "properties": {
        "parcel_id": "P-00039",
        "survey_number": "39/2",
        "area": 2.32,
        "village": "Bhugaon",
        "district": "Pune",
        "state": "Maharashtra",
        "land_record_id": "712fc3eb-156b-470e-b381-f6dc489d4142"
      },
      "geometry": {
        "type": "Polygon",
        "coordinates": [
          [
            [
              73.86632600900633,
              18.522253571339704
            ],
            [
              73.86832453333427,
              18.522253571339704
            ],
            [
              73.86832453333427,
              18.524252095667663
            ],
            [
              73.86632600900633,
              18.524252095667663
            ],
            [
              73.86632600900633,
              18.522253571339704
            ]
          ]
        ]
      }
    },
    {
      "type": "Feature",
      "properties": {
        "parcel_id": "P-00040",
        "survey_number": "40/4",
        "area": 2.13,
        "village": "Pirangut",
        "district": "Pune",
        "state": "Maharashtra",
        "land_record_id": "10262b4a-7810-4447-a8f8-945401300417"
      },
      "geometry": {
        "type": "Polygon",
        "coordinates": [
          [
            [
              73.86963911298143,
              18.522373860069774
            ],
            [
              73.87124094322068,
              18.522373860069774
            ],
            [
              73.87124094322068,
              18.52397569030902
            ],
            [
              73.86963911298143,
              18.52397569030902
            ],
            [
              73.86963911298143,
              18.522373860069774
            ]
          ]
        ]
      }
    },
    {
      "type": "Feature",
      "properties": {
        "parcel_id": "P-00041",
        "survey_number": "41/3",
        "area": 2.53,
        "village": "Rampur",
        "district": "Pune",
        "state": "Maharashtra",
        "land_record_id": "689efd73-9134-4614-86ed-30f56df80589"
      },
      "geometry": {
        "type": "Polygon",
        "coordinates": [
          [
            [
              73.84244162528041,
              18.52579945271569
            ],
            [
              73.84417115625392,
              18.52579945271569
            ],
            [
              73.84417115625392,
              18.527528983689184
            ],
            [
              73.84244162528041,
              18.527528983689184
            ],
            [
              73.84244162528041,
              18.52579945271569
            ]
          ]
        ]
      }
    },
    {
      "type": "Feature",
      "properties": {
        "parcel_id": "P-00042",
        "survey_number": "42/4",
        "area": 3.88,
        "village": "Shivapur",
        "district": "Pune",
        "state": "Maharashtra",
        "land_record_id": "fd8dde62-4046-439c-a75e-d349e4e03381"
      },
      "geometry": {
        "type": "Polygon",
        "coordinates": [
          [
            [
              73.84522532921459,
              18.525380496709076
            ],
            [
              73.84736031753387,
              18.525380496709076
            ],
            [
              73.84736031753387,
              18.52751548502836
            ],
            [
              73.84522532921459,
              18.52751548502836
            ],
            [
              73.84522532921459,
              18.525380496709076
            ]
          ]
        ]
      }
    },
    {
      "type": "Feature",
      "properties": {
        "parcel_id": "P-00043",
        "survey_number": "43/3",
        "area": 0.97,
        "village": "Nimbgaon",
        "district": "Pune",
        "state": "Maharashtra",
        "land_record_id": "fa666d50-d072-42f8-8f6a-e697e0f60492"
      },
      "geometry": {
        "type": "Polygon",
        "coordinates": [
          [
            [
              73.84836941493957,
              18.525311021055636
            ],
            [
              73.85004912747236,
              18.525311021055636
            ],
            [
              73.85004912747236,
              18.526990733588434
            ],
            [
              73.84836941493957,
              18.526990733588434
            ],
            [
              73.84836941493957,
              18.525311021055636
            ]
          ]
        ]
      }
    },
    {
      "type": "Feature",
      "properties": {
        "parcel_id": "P-00044",
        "survey_number": "44/1",
        "area": 2.78,
        "village": "Karanjawane",
        "district": "Pune",
        "state": "Maharashtra",
        "land_record_id": "d6bc729e-7808-4c6c-928d-c8ba90e2f1eb"
      },
      "geometry": {
        "type": "Polygon",
        "coordinates": [
          [
            [
              73.85100956716026,
              18.525077316866437
            ],
            [
              73.85308424389267,
              18.525077316866437
            ],
            [
              73.85308424389267,
              18.527151993598835
            ],
            [
              73.85100956716026,
              18.527151993598835
            ],
            [
              73.85100956716026,
              18.525077316866437
            ]
          ]
        ]
      }
    },
    {
      "type": "Feature",
      "properties": {
        "parcel_id": "P-00045",
        "survey_number": "45/1",
        "area": 4.39,
        "village": "Khadakwasla",
        "district": "Pune",
        "state": "Maharashtra",
        "land_record_id": "18a7d26d-0902-4775-9501-c3dada6defd4"
      },
      "geometry": {
        "type": "Polygon",
        "coordinates": [
          [
            [
              73.8539168988646,
              18.525268147775254
            ],
            [
              73.85606018674953,
              18.525268147775254
            ],
            [
              73.85606018674953,
              18.527411435660195
            ],
            [
              73.8539168988646,
              18.527411435660195
            ],
            [
              73.8539168988646,
              18.525268147775254
            ]
          ]
        ]
      }
    },
    {
      "type": "Feature",
      "properties": {
        "parcel_id": "P-00046",
        "survey_number": "46/2",
        "area": 4.51,
        "village": "Dontagaon",
        "district": "Pune",
        "state": "Maharashtra",
        "land_record_id": "38a84d83-cf2b-4115-9e39-e1e390a76f68"
      },
      "geometry": {
        "type": "Polygon",
        "coordinates": [
          [
            [
              73.85724626254903,
              18.525390549003358
            ],
            [
              73.85922262440381,
              18.525390549003358
            ],
            [
              73.85922262440381,
              18.52736691085813
            ],
            [
              73.85724626254903,
              18.52736691085813
            ],
            [
              73.85724626254903,
              18.525390549003358
            ]
          ]
        ]
      }
    },
    {
      "type": "Feature",
      "properties": {
        "parcel_id": "P-00047",
        "survey_number": "47/4",
        "area": 4.99,
        "village": "Pargaon",
        "district": "Pune",
        "state": "Maharashtra",
        "land_record_id": "d824297c-07c7-470e-8af9-c63953e4a05e"
      },
      "geometry": {
        "type": "Polygon",
        "coordinates": [
          [
            [
              73.86058153555841,
              18.525735327285012
            ],
            [
              73.86228888879718,
              18.525735327285012
            ],
            [
              73.86228888879718,
              18.527442680523784
            ],
            [
              73.86058153555841,
              18.527442680523784
            ],
            [
              73.86058153555841,
              18.525735327285012
            ]
          ]
        ]
      }
    },
    {
      "type": "Feature",
      "properties": {
        "parcel_id": "P-00048",
        "survey_number": "48/2",
        "area": 1.87,
        "village": "Bhukum",
        "district": "Pune",
        "state": "Maharashtra",
        "land_record_id": "2b4c9a40-3004-4e3d-bf0c-66314575aeee"
      },
      "geometry": {
        "type": "Polygon",
        "coordinates": [
          [
            [
              73.86351569077938,
              18.52563879943086
            ],
            [
              73.86520328564178,
              18.52563879943086
            ],
            [
              73.86520328564178,
              18.52732639429327
            ],
            [
              73.86351569077938,
              18.52732639429327
            ],
            [
              73.86351569077938,
              18.52563879943086
            ]
          ]
        ]
      }
    },
    {
      "type": "Feature",
      "properties": {
        "parcel_id": "P-00049",
        "survey_number": "49/4",
        "area": 3.97,
        "village": "Bhugaon",
        "district": "Pune",
        "state": "Maharashtra",
        "land_record_id": "3079bbe6-4a1d-49c5-b49f-ee26b5a5f623"
      },
      "geometry": {
        "type": "Polygon",
        "coordinates": [
          [
            [
              73.86603239943624,
              18.525719868941316
            ],
            [
              73.86786429375296,
              18.525719868941316
            ],
            [
              73.86786429375296,
              18.52755176325803
            ],
            [
              73.86603239943624,
              18.52755176325803
            ],
            [
              73.86603239943624,
              18.525719868941316
            ]
          ]
        ]
      }
    },
    {
      "type": "Feature",
      "properties": {
        "parcel_id": "P-00050",
        "survey_number": "50/1",
        "area": 4.78,
        "village": "Pirangut",
        "district": "Pune",
        "state": "Maharashtra",
        "land_record_id": "164ba9d8-a6a6-4af1-93df-454511db6644"
      },
      "geometry": {
        "type": "Polygon",
        "coordinates": [
          [
            [
              73.86899656753332,
              18.52543876268899
            ],
            [
              73.87087815131937,
              18.52543876268899
            ],
            [
              73.87087815131937,
              18.527320346475033
            ],
            [
              73.86899656753332,
              18.527320346475033
            ],
            [
              73.86899656753332,
              18.52543876268899
            ]
          ]
        ]
      }
    }
  ]
}